{"fetched_at":"2026-07-11T06:35:28.067Z","source":"https://celestrak.org/NORAD/elements/gp.php?NAME=GLOBAL&FORMAT=JSON","constellation":"blacksky-gen2","records":[{"OBJECT_NAME":"GLOBAL-2","OBJECT_ID":"2018-099BG","EPOCH":"2026-07-10T02:07:49.564704","CLASSIFICATION_TYPE":"U","MEAN_MOTION":15.08809515,"ECCENTRICITY":0.00076788,"INCLINATION":97.3551,"RA_OF_ASC_NODE":226.6497,"ARG_OF_PERICENTER":81.0751,"MEAN_ANOMALY":279.1347,"EPHEMERIS_TYPE":0,"NORAD_CAT_ID":43812,"ELEMENT_SET_NO":999,"REV_AT_EPOCH":41536,"BSTAR":0.00011743974,"MEAN_MOTION_DOT":0.00001788,"MEAN_MOTION_DDOT":0},{"OBJECT_NAME":"GLOBAL-4","OBJECT_ID":"2019-054E","EPOCH":"2026-07-10T02:42:46.671552","CLASSIFICATION_TYPE":"U","MEAN_MOTION":15.66674455,"ECCENTRICITY":0.00044297,"INCLINATION":45.001,"RA_OF_ASC_NODE":103.9034,"ARG_OF_PERICENTER":154.8461,"MEAN_ANOMALY":205.2653,"EPHEMERIS_TYPE":0,"NORAD_CAT_ID":44499,"ELEMENT_SET_NO":999,"REV_AT_EPOCH":38395,"BSTAR":0.0004656949,"MEAN_MOTION_DOT":0.00050072,"MEAN_MOTION_DDOT":0},{"OBJECT_NAME":"GLOBAL-9","OBJECT_ID":"2021-023G","EPOCH":"2026-07-09T23:34:53.282496","CLASSIFICATION_TYPE":"U","MEAN_MOTION":15.47463869,"ECCENTRICITY":0.0002789,"INCLINATION":44.9804,"RA_OF_ASC_NODE":122.3181,"ARG_OF_PERICENTER":131.1716,"MEAN_ANOMALY":228.9415,"EPHEMERIS_TYPE":0,"NORAD_CAT_ID":47971,"ELEMENT_SET_NO":999,"REV_AT_EPOCH":29847,"BSTAR":0.00032520203,"MEAN_MOTION_DOT":0.00016735,"MEAN_MOTION_DDOT":0},{"OBJECT_NAME":"GLOBAL-14","OBJECT_ID":"2021-106A","EPOCH":"2026-07-10T07:55:20.008416","CLASSIFICATION_TYPE":"U","MEAN_MOTION":15.51660276,"ECCENTRICITY":0.00168882,"INCLINATION":42.0022,"RA_OF_ASC_NODE":153.4283,"ARG_OF_PERICENTER":191.3088,"MEAN_ANOMALY":168.7379,"EPHEMERIS_TYPE":0,"NORAD_CAT_ID":49469,"ELEMENT_SET_NO":999,"REV_AT_EPOCH":26172,"BSTAR":0.00031886774,"MEAN_MOTION_DOT":0.00019295,"MEAN_MOTION_DDOT":0},{"OBJECT_NAME":"GLOBAL-12","OBJECT_ID":"2021-115BA","EPOCH":"2026-07-10T14:34:24.220128","CLASSIFICATION_TYPE":"U","MEAN_MOTION":15.55134134,"ECCENTRICITY":0.0002676,"INCLINATION":53.1957,"RA_OF_ASC_NODE":291.807,"ARG_OF_PERICENTER":67.4277,"MEAN_ANOMALY":292.7018,"EPHEMERIS_TYPE":0,"NORAD_CAT_ID":49772,"ELEMENT_SET_NO":999,"REV_AT_EPOCH":25954,"BSTAR":0.00040417,"MEAN_MOTION_DOT":0.00027333,"MEAN_MOTION_DDOT":0},{"OBJECT_NAME":"GLOBAL-13","OBJECT_ID":"2021-115BB","EPOCH":"2026-07-10T18:32:35.130912","CLASSIFICATION_TYPE":"U","MEAN_MOTION":15.46995782,"ECCENTRICITY":0.0001107,"INCLINATION":53.1978,"RA_OF_ASC_NODE":302.3911,"ARG_OF_PERICENTER":154.7411,"MEAN_ANOMALY":205.3652,"EPHEMERIS_TYPE":0,"NORAD_CAT_ID":49773,"ELEMENT_SET_NO":999,"REV_AT_EPOCH":25941,"BSTAR":0.00029226,"MEAN_MOTION_DOT":0.00014585,"MEAN_MOTION_DDOT":0},{"OBJECT_NAME":"GLOBAL-17","OBJECT_ID":"2021-120A","EPOCH":"2026-07-10T16:36:57.849408","CLASSIFICATION_TYPE":"U","MEAN_MOTION":15.53557273,"ECCENTRICITY":0.0013539,"INCLINATION":41.9947,"RA_OF_ASC_NODE":269.1012,"ARG_OF_PERICENTER":55.8829,"MEAN_ANOMALY":304.3299,"EPHEMERIS_TYPE":0,"NORAD_CAT_ID":49949,"ELEMENT_SET_NO":999,"REV_AT_EPOCH":25855,"BSTAR":0.00033147,"MEAN_MOTION_DOT":0.00021474,"MEAN_MOTION_DDOT":0},{"OBJECT_NAME":"GLOBAL-16","OBJECT_ID":"2021-120B","EPOCH":"2026-07-10T16:10:27.818112","CLASSIFICATION_TYPE":"U","MEAN_MOTION":15.51339852,"ECCENTRICITY":0.0011813,"INCLINATION":41.9952,"RA_OF_ASC_NODE":273.3944,"ARG_OF_PERICENTER":44.6913,"MEAN_ANOMALY":315.4881,"EPHEMERIS_TYPE":0,"NORAD_CAT_ID":49950,"ELEMENT_SET_NO":999,"REV_AT_EPOCH":25849,"BSTAR":0.00031687,"MEAN_MOTION_DOT":0.00018892,"MEAN_MOTION_DDOT":0},{"OBJECT_NAME":"GLOBAL-18","OBJECT_ID":"2022-034B","EPOCH":"2026-07-10T06:12:31.501152","CLASSIFICATION_TYPE":"U","MEAN_MOTION":15.47079635,"ECCENTRICITY":0.00043087,"INCLINATION":52.98,"RA_OF_ASC_NODE":146.3065,"ARG_OF_PERICENTER":11.3992,"MEAN_ANOMALY":348.711,"EPHEMERIS_TYPE":0,"NORAD_CAT_ID":52196,"ELEMENT_SET_NO":999,"REV_AT_EPOCH":24053,"BSTAR":0.00030601834,"MEAN_MOTION_DOT":0.00015344,"MEAN_MOTION_DDOT":0},{"OBJECT_NAME":"GLOBAL-19","OBJECT_ID":"2023-041B","EPOCH":"2026-07-09T22:51:50.896224","CLASSIFICATION_TYPE":"U","MEAN_MOTION":15.38589343,"ECCENTRICITY":0.00087792,"INCLINATION":42.0016,"RA_OF_ASC_NODE":69.0757,"ARG_OF_PERICENTER":183.2971,"MEAN_ANOMALY":176.7812,"EPHEMERIS_TYPE":0,"NORAD_CAT_ID":55982,"ELEMENT_SET_NO":999,"REV_AT_EPOCH":18543,"BSTAR":0.00025562462,"MEAN_MOTION_DOT":0.00009716,"MEAN_MOTION_DDOT":0},{"OBJECT_NAME":"GLOBAL-5","OBJECT_ID":"2023-041C","EPOCH":"2026-07-10T19:54:07.663104","CLASSIFICATION_TYPE":"U","MEAN_MOTION":15.38619065,"ECCENTRICITY":0.0007806,"INCLINATION":42.0016,"RA_OF_ASC_NODE":63.4867,"ARG_OF_PERICENTER":185.3038,"MEAN_ANOMALY":174.772,"EPHEMERIS_TYPE":0,"NORAD_CAT_ID":55983,"ELEMENT_SET_NO":999,"REV_AT_EPOCH":18557,"BSTAR":0.00022434,"MEAN_MOTION_DOT":0.00008499,"MEAN_MOTION_DDOT":0}]}
